OBJECT_NAME,OBJECT_ID,EPOCH,MEAN_MOTION,ECCENTRICITY,INCLINATION,RA_OF_ASC_NODE,ARG_OF_PERICENTER,MEAN_ANOMALY,EPHEMERIS_TYPE,CLASSIFICATION_TYPE,NORAD_CAT_ID,ELEMENT_SET_NO,REV_AT_EPOCH,BSTAR,MEAN_MOTION_DOT,MEAN_MOTION_DDOT
AMOS-4,2013-045A,2026-06-19T13:11:05.466912,1.00272141,.00025857,0.0128,296.1098,125.4856,108.9604,0,U,39237,999,4698,0,.1E-7,0
AEHF-3 (USA 246),2013-050A,2026-06-19T11:37:38.682336,1.00273166,.00878347,5.2988,67.1633,188.0149,62.6700,0,U,39256,999,4567,0,.21E-6,0
ASTRA 2E,2013-056A,2026-06-19T13:00:43.960608,1.00273671,.00027815,0.0732,316.6724,144.6707,30.1179,0,U,39285,999,4644,0,.145E-5,0
FM-6,2013-058A,2026-06-19T11:34:38.788896,1.00269661,.00017534,0.0352,51.0857,125.6798,148.3058,0,U,39360,999,4609,0,0,0
RADUGA-1M 3,2013-062A,2026-06-18T19:09:38.685888,1.00273348,.00018039,5.9627,72.3351,267.8367,249.2637,0,U,39375,999,4612,0,.144E-5,0
SES-8,2013-071A,2026-06-19T08:11:38.422752,1.00272140,.00026833,0.0203,292.6569,154.9053,37.9119,0,U,39460,999,4445,0,-.276E-5,0
INMARSAT 5-F1,2013-073A,2026-06-19T13:10:28.027200,1.00270513,.00006819,0.0171,20.6641,317.2709,190.0744,0,U,39476,999,4560,0,.22E-6,0
TKSAT-1 (TUPAC KATARI),2013-075A,2026-06-19T12:27:39.631680,1.00273224,.00025128,0.0437,185.2469,254.6379,287.5547,0,U,39481,999,4562,0,-.201E-5,0
EXPRESS-AM5,2013-077A,2026-06-19T06:41:56.065632,1.00270514,.00002468,0.0150,290.7568,50.0930,167.1627,0,U,39487,999,4638,0,-.286E-5,0
GSAT-14,2014-001A,2026-06-19T08:05:45.167712,1.00271213,.00008567,0.0422,95.8579,174.4907,192.6333,0,U,39498,999,4540,0,-.83E-6,0
THAICOM 6,2014-002A,2026-06-19T13:14:57.596064,1.00272273,.00043896,0.0721,107.5507,3.4241,74.0402,0,U,39500,999,4548,0,-.127E-5,0
TDRS 12,2014-004A,2026-06-19T13:04:37.896384,1.00266091,.00030914,3.9801,19.1484,195.8197,207.9120,0,U,39504,999,4430,0,-.278E-5,0
ABS-2,2014-006A,2026-06-19T13:13:57.692352,1.00270919,.00037871,0.0157,325.7298,107.0072,108.4372,0,U,39508,999,4530,0,-.92E-6,0
ATHENA-FIDUS,2014-006B,2026-06-19T13:03:21.208608,1.00273912,.00013417,0.0353,93.7243,0.4060,47.2836,0,U,39509,999,4511,0,.148E-5,0
TURKSAT 4A,2014-007A,2026-06-19T13:04:36.089760,1.00274039,.00012379,0.0686,287.8452,34.3542,183.7367,0,U,39522,999,4499,0,.14E-5,0
EXPRESS-AT1,2014-010A,2026-06-19T16:09:13.120128,1.00303871,.00038066,0.2652,85.5362,44.7450,82.5280,0,U,39612,999,4484,0,.16E-6,0
EXPRESS-AT2,2014-010B,2026-06-19T09:43:04.162656,1.00271145,.00003686,0.0164,350.9375,292.4926,185.9420,0,U,39613,999,4452,0,.73E-6,0
AMAZONAS 4A,2014-011A,2026-06-19T09:06:07.704576,1.00269408,.00039849,0.0546,175.8997,298.4121,215.8082,0,U,39616,999,4473,0,-.258E-5,0
ASTRA 5B,2014-011B,2026-06-19T12:59:14.103744,1.00273341,.0001986,0.0652,311.2030,146.4796,28.4091,0,U,39617,999,4469,0,.131E-5,0
IRNSS-1B,2014-017A,2026-06-18T18:19:03.572256,1.00276864,.0023149,28.9195,240.3764,189.5120,167.0529,0,U,39635,999,4480,0,.112E-5,0
LUCH-5V,2014-023A,2026-06-19T15:02:18.893184,1.00273535,.00018678,5.1395,69.7210,49.4044,109.0285,0,U,39727,999,4438,0,-.276E-5,0
KAZSAT-3,2014-023B,2026-06-19T13:09:13.146912,1.00273868,.00003183,0.0144,27.7356,32.3100,103.5307,0,U,39728,999,4248,0,.54E-6,0
EUTELSAT 3B,2014-030A,2026-06-19T12:53:29.654592,1.00271549,.0004023,0.0680,22.4459,64.1000,17.6647,0,U,39773,999,4409,0,.14E-6,0
ASIASAT 8 (AMOS-7),2014-046A,2026-06-19T13:22:37.168896,1.00272919,.00013574,0.0226,62.6705,21.6394,129.4304,0,U,40107,999,10217,0,-.339E-5,0
ASIASAT 6,2014-052A,2026-06-19T15:09:25.710048,1.00269790,.00007743,0.0362,82.6814,22.9258,149.5094,0,U,40141,999,4310,0,-.368E-5,0
OPTUS 10,2014-054A,2026-06-18T23:14:51.434304,1.00270780,.00019673,0.0781,50.4612,35.8039,325.6614,0,U,40146,999,4304,0,-.154E-5,0
MEASAT-3B,2014-054B,2026-06-19T03:02:42.311040,1.00270587,.00029698,0.0290,24.3701,64.4277,315.7333,0,U,40147,999,4292,0,-.248E-5,0
HIMAWARI-8,2014-060A,2026-06-19T12:11:38.822208,1.00271019,.00011151,0.0160,43.9986,48.6916,138.6176,0,U,40267,999,4278,0,-.282E-5,0
IRNSS-1C,2014-061A,2026-06-18T21:37:54.135264,1.00269060,.0022696,6.5218,88.8990,2.6506,223.0203,0,U,40269,999,4270,0,-.169E-5,0
INTELSAT 30 (IS-30),2014-062A,2026-06-19T05:50:50.775072,1.00270952,.00012405,0.0281,53.7801,330.6226,235.7245,0,U,40271,999,681,0,-.157E-5,0
ARSAT 1,2014-062B,2026-06-19T09:06:45.145152,1.00270262,.00017382,0.0117,358.1505,84.7951,249.5311,0,U,40272,999,4264,0,-.266E-5,0
EUTELSAT 53A,2014-064A,2026-06-19T14:50:23.732736,1.00271761,.00009863,0.0181,325.4132,225.2170,352.8080,0,U,40277,999,4159,0,.92E-6,0
