AMOS-4                  
1 39237U 13045A   26170.54936883  .00000001  00000+0  00000+0 0  9998
2 39237   0.0128 296.1098 0002585 125.4856 108.9604  1.00272141 46986
AEHF-3 (USA 246)        
1 39256U 13050A   26170.48447549  .00000021  00000+0  00000+0 0  9996
2 39256   5.2988  67.1633 0087834 188.0149  62.6700  1.00273166 45675
ASTRA 2E                
1 39285U 13056A   26170.54217547  .00000145  00000+0  00000+0 0  9991
2 39285   0.0732 316.6724 0002781 144.6707  30.1179  1.00273671 46443
FM-6                    
1 39360U 13058A   26170.48239339  .00000000  00000+0  00000+0 0  9993
2 39360   0.0352  51.0857 0001753 125.6798 148.3058  1.00269661 46092
RADUGA-1M 3             
1 39375U 13062A   26169.79836442  .00000144  00000+0  00000+0 0  9993
2 39375   5.9627  72.3351 0001803 267.8367 249.2637  1.00273348 46124
SES-8                   
1 39460U 13071A   26170.34141693 -.00000276  00000+0  00000+0 0  9995
2 39460   0.0203 292.6569 0002683 154.9053  37.9119  1.00272140 44458
INMARSAT 5-F1           
1 39476U 13073A   26170.54893550  .00000022  00000+0  00000+0 0  9990
2 39476   0.0171  20.6641 0000681 317.2709 190.0744  1.00270513 45602
TKSAT-1 (TUPAC KATARI)  
1 39481U 13075A   26170.51920870 -.00000201  00000+0  00000+0 0  9991
2 39481   0.0437 185.2469 0002512 254.6379 287.5547  1.00273224 45628
EXPRESS-AM5             
1 39487U 13077A   26170.27912113 -.00000286  00000+0  00000+0 0  9996
2 39487   0.0150 290.7568 0000246  50.0930 167.1627  1.00270514 46386
GSAT-14                 
1 39498U 14001A   26170.33732833 -.00000083  00000+0  00000+0 0  9997
2 39498   0.0422  95.8579 0000856 174.4907 192.6333  1.00271213 45404
THAICOM 6               
1 39500U 14002A   26170.55205551 -.00000127  00000+0  00000+0 0  9997
2 39500   0.0721 107.5507 0004389   3.4241  74.0402  1.00272273 45484
TDRS 12                 
1 39504U 14004A   26170.54488306 -.00000278  00000+0  00000+0 0  9990
2 39504   3.9801  19.1484 0003091 195.8197 207.9120  1.00266091 44301
ABS-2                   
1 39508U 14006A   26170.55136218 -.00000092  00000+0  00000+0 0  9993
2 39508   0.0157 325.7298 0003787 107.0072 108.4372  1.00270919 45304
ATHENA-FIDUS            
1 39509U 14006B   26170.54399547  .00000148  00000+0  00000+0 0  9990
2 39509   0.0353  93.7243 0001341   0.4060  47.2836  1.00273912 45112
TURKSAT 4A              
1 39522U 14007A   26170.54486215  .00000140  00000+0  00000+0 0  9997
2 39522   0.0686 287.8452 0001237  34.3542 183.7367  1.00274039 44990
EXPRESS-AT1             
1 39612U 14010A   26170.67306852  .00000016  00000+0  00000+0 0  9995
2 39612   0.2652  85.5362 0003806  44.7450  82.5280  1.00303871 44846
EXPRESS-AT2             
1 39613U 14010B   26170.40490929  .00000073  00000+0  00000+0 0  9999
2 39613   0.0164 350.9375 0000368 292.4926 185.9420  1.00271145 44523
AMAZONAS 4A             
1 39616U 14011A   26170.37925584 -.00000258  00000+0  00000+0 0  9995
2 39616   0.0546 175.8997 0003984 298.4121 215.8082  1.00269408 44733
ASTRA 5B                
1 39617U 14011B   26170.54113546  .00000131  00000+0  00000+0 0  9991
2 39617   0.0652 311.2030 0001986 146.4796  28.4091  1.00273341 44690
IRNSS-1B                
1 39635U 14017A   26169.76323579  .00000112  00000+0  00000+0 0  9997
2 39635  28.9195 240.3764 0023149 189.5120 167.0529  1.00276864 44803
LUCH-5V                 
1 39727U 14023A   26170.62660756 -.00000276  00000+0  00000+0 0  9996
2 39727   5.1395  69.7210 0001867  49.4044 109.0285  1.00273535 44385
KAZSAT-3                
1 39728U 14023B   26170.54806883  .00000054  00000+0  00000+0 0  9994
2 39728   0.0144  27.7356 0000318  32.3100 103.5307  1.00273868 42483
EUTELSAT 3B             
1 39773U 14030A   26170.53714878  .00000014  00000+0  00000+0 0  9999
2 39773   0.0680  22.4459 0004023  64.1000  17.6647  1.00271549 44098
ASIASAT 8 (AMOS-7)      
1 40107U 14046A   26170.55737464 -.00000339  00000+0  00000+0 0  9998
2 40107   0.0226  62.6705 0001357  21.6394 129.4304  1.00272919102176
ASIASAT 6               
1 40141U 14052A   26170.63154757 -.00000368  00000+0  00000+0 0  9992
2 40141   0.0362  82.6814 0000774  22.9258 149.5094  1.00269790 43102
OPTUS 10                
1 40146U 14054A   26169.96865086 -.00000154  00000+0  00000+0 0  9990
2 40146   0.0781  50.4612 0001967  35.8039 325.6614  1.00270780 43045
MEASAT-3B               
1 40147U 14054B   26170.12687860 -.00000248  00000+0  00000+0 0  9997
2 40147   0.0290  24.3701 0002969  64.4277 315.7333  1.00270587 42924
HIMAWARI-8              
1 40267U 14060A   26170.50808822 -.00000282  00000+0  00000+0 0  9990
2 40267   0.0160  43.9986 0001115  48.6916 138.6176  1.00271019 42783
IRNSS-1C                
1 40269U 14061A   26169.90132101 -.00000169  00000+0  00000+0 0  9999
2 40269   6.5218  88.8990 0022696   2.6506 223.0203  1.00269060 42700
INTELSAT 30 (IS-30)     
1 40271U 14062A   26170.24364323 -.00000157  00000+0  00000+0 0  9992
2 40271   0.0281  53.7801 0001240 330.6226 235.7245  1.00270952  6819
ARSAT 1                 
1 40272U 14062B   26170.37968918 -.00000266  00000+0  00000+0 0  9998
2 40272   0.0117 358.1505 0001738  84.7951 249.5311  1.00270262 42647
EUTELSAT 53A            
1 40277U 14064A   26170.61833024  .00000092  00000+0  00000+0 0  9997
2 40277   0.0181 325.4132 0000986 225.2170 352.8080  1.00271761 41594
